CTC1_L_00349016-03
1 54086U 24937BS  26070.40835648  .00000000  00000+0  00000-0 0  9990
2 54086  40.0000 180.0000 0000000   0.0000   0.0000 13.72670257    19
CTC1_L_00349016-04
1 54087U 25388ZA  26070.40835648  .00000000  00000+0  00000-0 0  9992
2 54087  40.0000 180.0000 0000000   0.0000  90.0000 13.72670257    19
CTC1_L_00349017-01
1 54088U 24985FI  26070.40835648  .00000000  00000+0  00000-0 0  9995
2 54088  40.0000 192.0000 0000000   0.0000 192.0000 13.72670257    16
CTC1_L_00349017-02
1 54089U 25497UQ  26070.40835648  .00000000  00000+0  00000-0 0  9995
2 54089  40.0000 192.0000 0000000   0.0000 282.0000 13.72670257    17
CTC1_L_00349017-03
1 54090U 22270ZS  26070.40835648  .00000000  00000+0  00000-0 0  9993
2 54090  40.0000 192.0000 0000000   0.0000  12.0000 13.72670257    10
CTC1_L_00349017-04
1 54091U 22071UQ  26070.40835648  .00000000  00000+0  00000-0 0  9993
2 54091  40.0000 192.0000 0000000   0.0000 102.0000 13.72670257    11
CTC1_L_00349018-01
1 54092U 26925SW  26070.40835648  .00000000  00000+0  00000-0 0  9996
2 54092  40.0000 204.0000 0000000   0.0000 204.0000 13.72670257    19
CTC1_L_00349018-02
1 54093U 23327WB  26070.40835648  .00000000  00000+0  00000-0 0  9990
2 54093  40.0000 204.0000 0000000   0.0000 294.0000 13.72670257    19
CTC1_L_00349018-03
1 54094U 25273NA  26070.40835648  .00000000  00000+0  00000-0 0  9993
2 54094  40.0000 204.0000 0000000   0.0000  24.0000 13.72670257    11
CTC1_L_00349018-04
1 54095U 22179AA  26070.40835648  .00000000  00000+0  00000-0 0  9996
2 54095  40.0000 204.0000 0000000   0.0000 114.0000 13.72670257    12
CTC1_L_00349019-01
1 54096U 26944NW  26070.40835648  .00000000  00000+0  00000-0 0  9991
2 54096  40.0000 216.0000 0000000   0.0000 216.0000 13.72670257    19
CTC1_L_00349019-02
1 54097U 24030KU  26070.40835648  .00000000  00000+0  00000-0 0  9996
2 54097  40.0000 216.0000 0000000   0.0000 306.0000 13.72670257    10
CTC1_L_00349019-03
1 54098U 22188MW  26070.40835648  .00000000  00000+0  00000-0 0  9999
2 54098  40.0000 216.0000 0000000   0.0000  36.0000 13.72670257    11
CTC1_L_00349019-04
1 54099U 25144SI  26070.40835648  .00000000  00000+0  00000-0 0  9995
2 54099  40.0000 216.0000 0000000   0.0000 126.0000 13.72670257    12
CTC1_L_00349020-01
1 54100U 25195VW  26070.40835648  .00000000  00000+0  00000-0 0  9994
2 54100  40.0000 228.0000 0000000   0.0000 228.0000 13.72670257    11
CTC1_L_00349020-02
1 54101U 26598RF  26070.40835648  .00000000  00000+0  00000-0 0  9993
2 54101  40.0000 228.0000 0000000   0.0000 318.0000 13.72670257    12
CTC1_L_00349020-03
1 54102U 23253OI  26070.40835648  .00000000  00000+0  00000-0 0  9999
2 54102  40.0000 228.0000 0000000   0.0000  48.0000 13.72670257    13
CTC1_L_00349020-04
1 54103U 22332LU  26070.40835648  .00000000  00000+0  00000-0 0  9997
2 54103  40.0000 228.0000 0000000   0.0000 138.0000 13.72670257    14
CTC1_L_00349021-01
1 54104U 26299EG  26070.40835648  .00000000  00000+0  00000-0 0  9994
2 54104  40.0000 240.0000 0000000   0.0000 240.0000 13.72670257    13
CTC1_L_00349021-02
1 54105U 26451TD  26070.40835648  .00000000  00000+0  00000-0 0  9995
2 54105  40.0000 240.0000 0000000   0.0000 330.0000 13.72670257    14
CTC1_L_00349021-03
1 54106U 23055HU  26070.40835648  .00000000  00000+0  00000-0 0  9993
2 54106  40.0000 240.0000 0000000   0.0000  60.0000 13.72670257    15
CTC1_L_00349021-04
1 54107U 22991OW  26070.40835648  .00000000  00000+0  00000-0 0  9992
2 54107  40.0000 240.0000 0000000   0.0000 150.0000 13.72670257    16
CTC1_L_00349022-01
1 54108U 26187EJ  26070.40835648  .00000000  00000+0  00000-0 0  9994
2 54108  40.0000 252.0000 0000000   0.0000 252.0000 13.72670257    13
CTC1_L_00349022-02
1 54109U 24266UY  26070.40835648  .00000000  00000+0  00000-0 0  9991
2 54109  40.0000 252.0000 0000000   0.0000 342.0000 13.72670257    14
CTC1_L_00349022-03
1 54110U 22813YG  26070.40835648  .00000000  00000+0  00000-0 0  9999
2 54110  40.0000 252.0000 0000000   0.0000  72.0000 13.72670257    16
CTC1_L_00349022-04
1 54111U 22869ML  26070.40835648  .00000000  00000+0  00000-0 0  9991
2 54111  40.0000 252.0000 0000000   0.0000 162.0000 13.72670257    17
CTC1_L_00349023-01
1 54112U 24377KU  26070.40835648  .00000000  00000+0  00000-0 0  9998
2 54112  40.0000 264.0000 0000000   0.0000 264.0000 13.72670257    14
CTC1_L_00349023-02
1 54113U 26503EP  26070.40835648  .00000000  00000+0  00000-0 0  9992
2 54113  40.0000 264.0000 0000000   0.0000 354.0000 13.72670257    15
CTC1_L_00349023-03
1 54114U 26527PU  26070.40835648  .00000000  00000+0  00000-0 0  9999
2 54114  40.0000 264.0000 0000000   0.0000  84.0000 13.72670257    16
CTC1_L_00349023-04
1 54115U 25739OJ  26070.40835648  .00000000  00000+0  00000-0 0  9994
2 54115  40.0000 264.0000 0000000   0.0000 174.0000 13.72670257    17
CTC1_L_00349024-01
1 54116U 22233VK  26070.40835648  .00000000  00000+0  00000-0 0  9991
2 54116  40.0000 276.0000 0000000   0.0000 276.0000 13.72670257    14
CTC1_L_00349024-02
1 54117U 22750KT  26070.40835648  .00000000  00000+0  00000-0 0  9996
2 54117  40.0000 276.0000 0000000   0.0000   6.0000 13.72670257    16
CTC1_L_00349024-03
1 54118U 25904KJ  26070.40835648  .00000000  00000+0  00000-0 0  9991
2 54118  40.0000 276.0000 0000000   0.0000  96.0000 13.72670257    16
CTC1_L_00349024-04
1 54119U 25869UW  26070.40835648  .00000000  00000+0  00000-0 0  9992
2 54119  40.0000 276.0000 0000000   0.0000 186.0000 13.72670257    17
CTC1_L_00349025-01
1 54120U 24440AQ  26070.40835648  .00000000  00000+0  00000-0 0  9998
2 54120  40.0000 288.0000 0000000   0.0000 288.0000 13.72670257    15
CTC1_L_00349025-02
1 54121U 24028HW  26070.40835648  .00000000  00000+0  00000-0 0  9991
2 54121  40.0000 288.0000 0000000   0.0000  18.0000 13.72670257    17
CTC1_L_00349025-03
1 54122U 25920CR  26070.40835648  .00000000  00000+0  00000-0 0  9994
2 54122  40.0000 288.0000 0000000   0.0000 108.0000 13.72670257    18
CTC1_L_00349025-04
1 54123U 23869MC  26070.40835648  .00000000  00000+0  00000-0 0  9995
2 54123  40.0000 288.0000 0000000   0.0000 198.0000 13.72670257    18
CTC1_L_00349026-01
1 54124U 22518HH  26070.40835648  .00000000  00000+0  00000-0 0  9996
2 54124  40.0000 300.0000 0000000   0.0000 300.0000 13.72670257    19
CTC1_L_00349026-02
1 54125U 25523XP  26070.40835648  .00000000  00000+0  00000-0 0  9996
2 54125  40.0000 300.0000 0000000   0.0000  30.0000 13.72670257    10
CTC1_L_00349026-03
1 54126U 25220HU  26070.40835648  .00000000  00000+0  00000-0 0  9991
2 54126  40.0000 300.0000 0000000   0.0000 120.0000 13.72670257    11
CTC1_L_00349026-04
1 54127U 24868BP  26070.40835648  .00000000  00000+0  00000-0 0  9999
2 54127  40.0000 300.0000 0000000   0.0000 210.0000 13.72670257    12
CTC1_L_00349027-01
1 54128U 25291PE  26070.40835648  .00000000  00000+0  00000-0 0  9991
2 54128  40.0000 312.0000 0000000   0.0000 312.0000 13.72670257    19
CTC1_L_00349027-02
1 54129U 25175PK  26070.40835648  .00000000  00000+0  00000-0 0  9993
2 54129  40.0000 312.0000 0000000   0.0000  42.0000 13.72670257    10
CTC1_L_00349027-03
1 54130U 24448X   26070.40835648  .00000000  00000+0  00000-0 0  9997
2 54130  40.0000 312.0000 0000000   0.0000 132.0000 13.72670257    12
CTC1_L_00349027-04
1 54131U 25145WZ  26070.40835648  .00000000  00000+0  00000-0 0  9993
2 54131  40.0000 312.0000 0000000   0.0000 222.0000 13.72670257    13
CTC1_L_00349028-01
1 54132U 22507HZ  26070.40835648  .00000000  00000+0  00000-0 0  9993
2 54132  40.0000 324.0000 0000000   0.0000 324.0000 13.72670257    10
CTC1_L_00349028-02
1 54133U 25530CR  26070.40835648  .00000000  00000+0  00000-0 0  9993
2 54133  40.0000 324.0000 0000000   0.0000  54.0000 13.72670257    11
CTC1_L_00349028-03
1 54134U 22348GG  26070.40835648  .00000000  00000+0  00000-0 0  9998
2 54134  40.0000 324.0000 0000000   0.0000 144.0000 13.72670257    12
CTC1_L_00349028-04
1 54135U 22068HX  26070.40835648  .00000000  00000+0  00000-0 0  9998
2 54135  40.0000 324.0000 0000000   0.0000 234.0000 13.72670257    13
CTC1_L_00349029-01
1 54136U 24298UF  26070.40835648  .00000000  00000+0  00000-0 0  9996
2 54136  40.0000 336.0000 0000000   0.0000 336.0000 13.72670257    10
CTC1_L_00349029-02
1 54137U 24268IS  26070.40835648  .00000000  00000+0  00000-0 0  9994
2 54137  40.0000 336.0000 0000000   0.0000  66.0000 13.72670257    11
CTC1_L_00349029-03
1 54138U 23054OO  26070.40835648  .00000000  00000+0  00000-0 0  9997
2 54138  40.0000 336.0000 0000000   0.0000 156.0000 13.72670257    12
CTC1_L_00349029-04
1 54139U 22586YC  26070.40835648  .00000000  00000+0  00000-0 0  9997
2 54139  40.0000 336.0000 0000000   0.0000 246.0000 13.72670257    13
CTC1_L_00349030-01
1 54140U 22448JM  26070.40835648  .00000000  00000+0  00000-0 0  9996
2 54140  40.0000 348.0000 0000000   0.0000 348.0000 13.72670257    11
CTC1_L_00349030-02
1 54141U 24414U   26070.40835648  .00000000  00000+0  00000-0 0  9992
2 54141  40.0000 348.0000 0000000   0.0000  78.0000 13.72670257    12
CTC1_L_00349030-03
1 54142U 24461UC  26070.40835648  .00000000  00000+0  00000-0 0  9995
2 54142  40.0000 348.0000 0000000   0.0000 168.0000 13.72670257    13
CTC1_L_00349030-04
1 54143U 23933QX  26070.40835648  .00000000  00000+0  00000-0 0  9999
2 54143  40.0000 348.0000 0000000   0.0000 258.0000 13.72670257    14
